{
  "type": "FeatureCollection",
  "features": [
    {
      "type": "Feature",
      "properties": {
        "norad_id": 63632,
        "name": "SHENZHOU-20 (SZ-20)",
        "group": "stations",
        "lat": 9.795707297136524,
        "lon": -141.15640254476475,
        "alt_km": 395.70311099119954,
        "timestamp": "2025-12-07T05:38:08.702054+00:00",
        "meta_object_name": "SHENZHOU-20 (SZ-20)",
        "meta_object_id": "2025-082A",
        "meta_epoch": "2025-12-06T15:05:32.998560",
        "meta_mean_motion": 15.5879906,
        "meta_eccentricity": 0.00095344,
        "meta_inclination": 41.4683,
        "meta_ra_of_asc_node": 53.7961,
        "meta_arg_of_pericenter": 342.8614,
        "meta_mean_anomaly": 17.1901,
        "meta_ephemeris_type": 0,
        "meta_classification_type": "U",
        "meta_norad_cat_id": 63632,
        "meta_element_set_no": 999,
        "meta_rev_at_epoch": 25530,
        "meta_bstar": 0.00036466504,
        "meta_mean_motion_dot": 0.00028802,
        "meta_mean_motion_ddot": 0,
        "tle_line1": "1 63632U 25082A   25340.62885415  .00028802  00000+0  36467-3 0  9998",
        "tle_line2": "2 63632  41.4683  53.7961 0009534 342.8614  17.1901 15.58799060255302"
      },
      "geometry": {
        "type": "Point",
        "coordinates": [
          -141.15640254476475,
          9.795707297136524
        ]
      }
    },
    {
      "type": "Feature",
      "properties": {
        "norad_id": 64751,
        "name": "PROGRESS-MS 31",
        "group": "stations",
        "lat": -50.88897536638484,
        "lon": 66.77926548915485,
        "alt_km": 421.4764556189857,
        "timestamp": "2025-12-07T05:38:08.702063+00:00",
        "meta_object_name": "PROGRESS-MS 31",
        "meta_object_id": "2025-146A",
        "meta_epoch": "2025-12-06T13:01:49.374912",
        "meta_mean_motion": 15.4936639,
        "meta_eccentricity": 0.00035502,
        "meta_inclination": 51.6299,
        "meta_ra_of_asc_node": 173.16,
        "meta_arg_of_pericenter": 211.9909,
        "meta_mean_anomaly": 148.0864,
        "meta_ephemeris_type": 0,
        "meta_classification_type": "U",
        "meta_norad_cat_id": 64751,
        "meta_element_set_no": 999,
        "meta_rev_at_epoch": 675,
        "meta_bstar": 0.00027332684,
        "meta_mean_motion_dot": 0.00014832,
        "meta_mean_motion_ddot": 0,
        "tle_line1": "1 64751U 25146A   25340.54293258  .00014832  00000+0  27333-3 0  9991",
        "tle_line2": "2 64751  51.6299 173.1600 0003550 211.9909 148.0864 15.49366390  6754"
      },
      "geometry": {
        "type": "Point",
        "coordinates": [
          66.77926548915485,
          -50.88897536638484
        ]
      }
    },
    {
      "type": "Feature",
      "properties": {
        "norad_id": 64786,
        "name": "TIANZHOU-9",
        "group": "stations",
        "lat": 9.795706496122348,
        "lon": -141.15640159363582,
        "alt_km": 395.70311111478895,
        "timestamp": "2025-12-07T05:38:08.702073+00:00",
        "meta_object_name": "TIANZHOU-9",
        "meta_object_id": "2025-149A",
        "meta_epoch": "2025-12-06T15:05:32.998560",
        "meta_mean_motion": 15.5879906,
        "meta_eccentricity": 0.00095344,
        "meta_inclination": 41.4683,
        "meta_ra_of_asc_node": 53.7961,
        "meta_arg_of_pericenter": 342.8614,
        "meta_mean_anomaly": 17.1901,
        "meta_ephemeris_type": 0,
        "meta_classification_type": "U",
        "meta_norad_cat_id": 64786,
        "meta_element_set_no": 999,
        "meta_rev_at_epoch": 25530,
        "meta_bstar": 0.00036466504,
        "meta_mean_motion_dot": 0.00028802,
        "meta_mean_motion_ddot": 0,
        "tle_line1": "1 64786U 25149A   25340.62885415  .00028802  00000+0  36467-3 0  9993",
        "tle_line2": "2 64786  41.4683  53.7961 0009534 342.8614  17.1901 15.58799060255303"
      },
      "geometry": {
        "type": "Point",
        "coordinates": [
          -141.15640159363582,
          9.795706496122348
        ]
      }
    },
    {
      "type": "Feature",
      "properties": {
        "norad_id": 65077,
        "name": "CREW DRAGON 11",
        "group": "stations",
        "lat": -50.88897559308498,
        "lon": 66.77926750151715,
        "alt_km": 421.47645566502524,
        "timestamp": "2025-12-07T05:38:08.702083+00:00",
        "meta_object_name": "CREW DRAGON 11",
        "meta_object_id": "2025-166A",
        "meta_epoch": "2025-12-06T13:01:49.374912",
        "meta_mean_motion": 15.4936639,
        "meta_eccentricity": 0.00035502,
        "meta_inclination": 51.6299,
        "meta_ra_of_asc_node": 173.16,
        "meta_arg_of_pericenter": 211.9909,
        "meta_mean_anomaly": 148.0864,
        "meta_ephemeris_type": 0,
        "meta_classification_type": "U",
        "meta_norad_cat_id": 65077,
        "meta_element_set_no": 999,
        "meta_rev_at_epoch": 214,
        "meta_bstar": 0.00027332684,
        "meta_mean_motion_dot": 0.00014832,
        "meta_mean_motion_ddot": 0,
        "tle_line1": "1 65077U 25166A   25340.54293258  .00014832  00000+0  27333-3 0  9995",
        "tle_line2": "2 65077  51.6299 173.1600 0003550 211.9909 148.0864 15.49366390  2145"
      },
      "geometry": {
        "type": "Point",
        "coordinates": [
          66.77926750151715,
          -50.88897559308498
        ]
      }
    },
    {
      "type": "Feature",
      "properties": {
        "norad_id": 65304,
        "name": "DRAGON CRS-33",
        "group": "stations",
        "lat": -50.88897572910528,
        "lon": 66.77926870893663,
        "alt_km": 421.4764556926493,
        "timestamp": "2025-12-07T05:38:08.702095+00:00",
        "meta_object_name": "DRAGON CRS-33",
        "meta_object_id": "2025-186A",
        "meta_epoch": "2025-12-06T13:01:49.374912",
        "meta_mean_motion": 15.4936639,
        "meta_eccentricity": 0.00035502,
        "meta_inclination": 51.6299,
        "meta_ra_of_asc_node": 173.16,
        "meta_arg_of_pericenter": 211.9909,
        "meta_mean_anomaly": 148.0864,
        "meta_ephemeris_type": 0,
        "meta_classification_type": "U",
        "meta_norad_cat_id": 65304,
        "meta_element_set_no": 999,
        "meta_rev_at_epoch": 11,
        "meta_bstar": 0.00027332684,
        "meta_mean_motion_dot": 0.00014832,
        "meta_mean_motion_ddot": 0,
        "tle_line1": "1 65304U 25186A   25340.54293258  .00014832  00000+0  27333-3 0  9990",
        "tle_line2": "2 65304  51.6299 173.1600 0003550 211.9909 148.0864 15.49366390   113"
      },
      "geometry": {
        "type": "Point",
        "coordinates": [
          66.77926870893663,
          -50.88897572910528
        ]
      }
    },
    {
      "type": "Feature",
      "properties": {
        "norad_id": 65586,
        "name": "PROGRESS-MS 32",
        "group": "stations",
        "lat": -50.88897584245519,
        "lon": 66.77926971511651,
        "alt_km": 421.47645571567136,
        "timestamp": "2025-12-07T05:38:08.702105+00:00",
        "meta_object_name": "PROGRESS-MS 32",
        "meta_object_id": "2025-204A",
        "meta_epoch": "2025-12-06T13:01:49.374912",
        "meta_mean_motion": 15.4936639,
        "meta_eccentricity": 0.00035502,
        "meta_inclination": 51.6299,
        "meta_ra_of_asc_node": 173.16,
        "meta_arg_of_pericenter": 211.9909,
        "meta_mean_anomaly": 148.0864,
        "meta_ephemeris_type": 0,
        "meta_classification_type": "U",
        "meta_norad_cat_id": 65586,
        "meta_element_set_no": 999,
        "meta_rev_at_epoch": 27,
        "meta_bstar": 0.00027332684,
        "meta_mean_motion_dot": 0.00014832,
        "meta_mean_motion_ddot": 0,
        "tle_line1": "1 65586U 25204A   25340.54293258  .00014832  00000+0  27333-3 0  9993",
        "tle_line2": "2 65586  51.6299 173.1600 0003550 211.9909 148.0864 15.49366390   272"
      },
      "geometry": {
        "type": "Point",
        "coordinates": [
          66.77926971511651,
          -50.88897584245519
        ]
      }
    },
    {
      "type": "Feature",
      "properties": {
        "norad_id": 65616,
        "name": "CYGNUS NG-23",
        "group": "stations",
        "lat": -50.88897595580536,
        "lon": 66.77927072129891,
        "alt_km": 421.4764557386916,
        "timestamp": "2025-12-07T05:38:08.702115+00:00",
        "meta_object_name": "CYGNUS NG-23",
        "meta_object_id": "2025-208A",
        "meta_epoch": "2025-12-06T13:01:49.374912",
        "meta_mean_motion": 15.4936639,
        "meta_eccentricity": 0.00035502,
        "meta_inclination": 51.6299,
        "meta_ra_of_asc_node": 173.16,
        "meta_arg_of_pericenter": 211.9909,
        "meta_mean_anomaly": 148.0864,
        "meta_ephemeris_type": 0,
        "meta_classification_type": "U",
        "meta_norad_cat_id": 65616,
        "meta_element_set_no": 999,
        "meta_rev_at_epoch": 22,
        "meta_bstar": 0.00027332684,
        "meta_mean_motion_dot": 0.00014832,
        "meta_mean_motion_ddot": 0,
        "tle_line1": "1 65616U 25208A   25340.54293258  .00014832  00000+0  27333-3 0  9991",
        "tle_line2": "2 65616  51.6299 173.1600 0003550 211.9909 148.0864 15.49366390   221"
      },
      "geometry": {
        "type": "Point",
        "coordinates": [
          66.77927072129891,
          -50.88897595580536
        ]
      }
    }
  ]
}